$$SOE
2460154.500000000, A.D. 2023-Jul-29 00:00:00.0000, -2.853596305670725E+08, 2.774600252782366E+08, -7.849230585896459E+07,
2460161.500000000, A.D. 2023-Aug-05 00:00:00.0000, -2.909459456527302E+08, 2.685217517368864E+08, -8.043982219956252E+07,
2460168.500000000, A.D. 2023-Aug-12 00:00:00.0000, -2.963181122852668E+08, 2.593858063610159E+08, -8.232811629424798E+07,
2460175.500000000, A.D. 2023-Aug-19 00:00:00.0000, -3.014694224421688E+08, 2.500565008429085E+08, -8.415503222559182E+07,
2460182.500000000, A.D. 2023-Aug-26 00:00:00.0000, -3.063931569526231E+08, 2.405383979690432E+08, -8.591840363918948E+07,
2460189.500000000, A.D. 2023-Sep-02 00:00:00.0000, -3.110825922804230E+08, 2.308363203244795E+08, -8.761605554261667E+07,
2460196.500000000, A.D. 2023-Sep-09 00:00:00.0000, -3.155310079570513E+08, 2.209553589603617E+08, -8.924580631454100E+07,
2460203.500000000, A.D. 2023-Sep-16 00:00:00.0000, -3.197316945339051E+08, 2.109008819331676E+08, -9.080546995632680E+07,
2460210.500000000, A.D. 2023-Sep-23 00:00:00.0000, -3.236779616747417E+08, 2.006785429643757E+08, -9.229285861308295E+07,
2460217.500000000, A.D. 2023-Sep-30 00:00:00.0000, -3.273631467657858E+08, 1.902942913678342E+08, -9.370578524802798E+07,
2460224.500000000, A.D. 2023-Oct-07 00:00:00.0000, -3.307806264365088E+08, 1.797543826540741E+08, -9.504206631205076E+07,
2460231.500000000, A.D. 2023-Oct-14 00:00:00.0000, -3.339238299888787E+08, 1.690653864474019E+08, -9.629952478840411E+07,
2460238.500000000, A.D. 2023-Oct-21 00:00:00.0000, -3.367862515382746E+08, 1.582341932597387E+08, -9.747599378832096E+07,
2460245.500000000, A.D. 2023-Oct-28 00:00:00.0000, -3.393614623226511E+08, 1.472680223124130E+08, -9.856932039218962E+07,
2460252.500000000, A.D. 2023-Nov-04 00:00:00.0000, -3.416431244639966E+08, 1.361744295626025E+08, -9.957736969705763E+07,
2460259.500000000, A.D. 2023-Nov-11 00:00:00.0000, -3.436250060340025E+08, 1.249613152572413E+08, -1.004980291475556E+08,
2460266.500000000, A.D. 2023-Nov-18 00:00:00.0000, -3.453009972285852E+08, 1.136369308650604E+08, -1.013292131854441E+08,
2460273.500000000, A.D. 2023-Nov-25 00:00:00.0000, -3.466651275981067E+08, 1.022098853165931E+08, -1.020688682312447E+08,
2460280.500000000, A.D. 2023-Dec-02 00:00:00.0000, -3.477115843196144E+08, 9.068915044140333E+07, -1.027149780090255E+08,
2460287.500000000, A.D. 2023-Dec-09 00:00:00.0000, -3.484347314410669E+08, 7.908406543782902E+07, -1.032655692322571E+08,
2460294.500000000, A.D. 2023-Dec-16 00:00:00.0000, -3.488291298091585E+08, 6.740434027598655E+07, -1.037187176793882E+08,
2460301.500000000, A.D. 2023-Dec-23 00:00:00.0000, -3.488895573208002E+08, 5.566005860309768E+07, -1.040725546342316E+08,
2460308.500000000, A.D. 2023-Dec-30 00:00:00.0000, -3.486110308157358E+08, 4.386168107385170E+07, -1.043252734773626E+08,
2460315.500000000, A.D. 2024-Jan-06 00:00:00.0000, -3.479888313511158E+08, 3.202004661026108E+07, -1.044751364514482E+08,
2460322.500000000, A.D. 2024-Jan-13 00:00:00.0000, -3.470185296440548E+08, 2.014636964514472E+07, -1.045204820303699E+08,
2460329.500000000, A.D. 2024-Jan-20 00:00:00.0000, -3.456960104018231E+08, 8.252236291976906E+06, -1.044597327389546E+08,
2460336.500000000, A.D. 2024-Jan-27 00:00:00.0000, -3.440174974970724E+08, -3.650400053067051E+06, -1.042914031670585E+08,
2460343.500000000, A.D. 2024-Feb-03 00:00:00.0000, -3.419795803326859E+08, -1.554922477164499E+07, -1.040141081976321E+08,
2460350.500000000, A.D. 2024-Feb-10 00:00:00.0000, -3.395792410176857E+08, -2.743157017950015E+07, -1.036265714739969E+08,
2460357.500000000, A.D. 2024-Feb-17 00:00:00.0000, -3.368138820933143E+08, -3.928442590941924E+07, -1.031276340862973E+08,
2460364.500000000, A.D. 2024-Feb-24 00:00:00.0000, -3.336813546306244E+08, -5.109445164183335E+07, -1.025162634397404E+08,
2460371.500000000, A.D. 2024-Mar-02 00:00:00.0000, -3.301799865078189E+08, -6.284799234541781E+07, -1.017915622641990E+08,
2460378.500000000, A.D. 2024-Mar-09 00:00:00.0000, -3.263086105465826E+08, -7.453109621093914E+07, -1.009527777312628E+08,
2460385.500000000, A.D. 2024-Mar-16 00:00:00.0000, -3.220665919103507E+08, -8.612953518844008E+07, -9.999931064079654E+07,
2460392.500000000, A.D. 2024-Mar-23 00:00:00.0000, -3.174538546461425E+08, -9.762882710967141E+07, -9.893072451200154E+07,
2460399.500000000, A.D. 2024-Mar-30 00:00:00.0000, -3.124709093695068E+08, -1.090142594947411E+08, -9.774675430414088E+07,
2460406.500000000, A.D. 2024-Apr-06 00:00:00.0000, -3.071188815790784E+08, -1.202709184613033E+08, -9.644731498935981E+07,
2460413.500000000, A.D. 2024-Apr-13 00:00:00.0000, -3.013995367781387E+08, -1.313837219227642E+08, -9.503251015334979E+07,
2460420.500000000, A.D. 2024-Apr-20 00:00:00.0000, -2.953153030664988E+08, -1.423374543896642E+08, -9.350264022779420E+07,
2460427.500000000, A.D. 2024-Apr-27 00:00:00.0000, -2.888692924153714E+08, -1.531168038956862E+08, -9.185821016483639E+07,
2460434.500000000, A.D. 2024-May-04 00:00:00.0000, -2.820653202253896E+08, -1.637064016805251E+08, -9.009993652134258E+07,
2460441.500000000, A.D. 2024-May-11 00:00:00.0000, -2.749079226171940E+08, -1.740908646237888E+08, -8.822875388664550E+07,
2460448.500000000, A.D. 2024-May-18 00:00:00.0000, -2.674023710636225E+08, -1.842548402589139E+08, -8.624582056358653E+07,
2460455.500000000, A.D. 2024-May-25 00:00:00.0000, -2.595546840359195E+08, -1.941830541812336E+08, -8.415252341003004E+07,
2460462.500000000, A.D. 2024-Jun-01 00:00:00.0000, -2.513716353121552E+08, -2.038603596710797E+08, -8.195048175692356E+07,
2460469.500000000, A.D. 2024-Jun-08 00:00:00.0000, -2.428607584263080E+08, -2.132717892751073E+08, -7.964155033652946E+07,
2460476.500000000, A.D. 2024-Jun-15 00:00:00.0000, -2.340303466058441E+08, -2.224026074785932E+08, -7.722782112698632E+07,
2460483.500000000, A.D. 2024-Jun-22 00:00:00.0000, -2.248894489780013E+08, -2.312383629306280E+08, -7.471162384556466E+07,
2460490.500000000, A.D. 2024-Jun-29 00:00:00.0000, -2.154478649744432E+08, -2.397649416436090E+08, -7.209552497463733E+07,
2460497.500000000, A.D. 2024-Jul-06 00:00:00.0000, -2.057161341393259E+08, -2.479686232088479E+08, -6.938232570770501E+07,
2460504.500000000, A.D. 2024-Jul-13 00:00:00.0000, -1.957055192905270E+08, -2.558361367476002E+08, -6.657505872016861E+07,
2460511.500000000, A.D. 2024-Jul-20 00:00:00.0000, -1.854279849689602E+08, -2.633547149674847E+08, -6.367698345886849E+07,
2460518.500000000, A.D. 2024-Jul-27 00:00:00.0000, -1.748961718337872E+08, -2.705121467853554E+08, -6.069157995361009E+07,
2460525.500000000, A.D. 2024-Aug-03 00:00:00.0000, -1.641233667878007E+08, -2.772968283855463E+08, -5.762254120848805E+07,
2460532.500000000, A.D. 2024-Aug-10 00:00:00.0000, -1.531234687826714E+08, -2.836978122149321E+08, -5.447376421007629E+07,
2460539.500000000, A.D. 2024-Aug-17 00:00:00.0000, -1.419109504337777E+08, -2.897048534023128E+08, -5.124933959654425E+07,
2460546.500000000, A.D. 2024-Aug-24 00:00:00.0000, -1.305008156551334E+08, -2.953084531525352E+08, -4.795354005211838E+07,
2460553.500000000, A.D. 2024-Aug-31 00:00:00.0000, -1.189085534944174E+08, -3.004998987316813E+08, -4.459080751981764E+07,
2460560.500000000, A.D. 2024-Sep-07 00:00:00.0000, -1.071500881515430E+08, -3.052712995077881E+08, -4.116573934963906E+07,
2460567.500000000, A.D. 2024-Sep-14 00:00:00.0000, -9.524172549418478E+07, -3.096156176855036E+08, -3.768307341787849E+07,
2460574.500000000, A.D. 2024-Sep-21 00:00:00.0000, -8.320009854133604E+07, -3.135266930034663E+08, -3.414767211980745E+07,
2460581.500000000, A.D. 2024-Sep-28 00:00:00.0000, -7.104211287816942E+07, -3.169992643548478E+08, -3.056450558767810E+07,
2460588.500000000, A.D. 2024-Oct-05 00:00:00.0000, -5.878488883163602E+07, -3.200289881225388E+08, -2.693863461381283E+07,
2460595.500000000, A.D. 2024-Oct-12 00:00:00.0000, -4.644570128032482E+07, -3.226124501097183E+08, -2.327519315512462E+07,
2460602.500000000, A.D. 2024-Oct-19 00:00:00.0000, -3.404191936896195E+07, -3.247471712720296E+08, -1.957937044171570E+07,
2460609.500000000, A.D. 2024-Oct-26 00:00:00.0000, -2.159094668417221E+07, -3.264316080655694E+08, -1.585639291706811E+07,
2460616.500000000, A.D. 2024-Nov-02 00:00:00.0000, -9.110162158010758E+06, -3.276651476407490E+08, -1.211150620814313E+07,
2460623.500000000, A.D. 2024-Nov-09 00:00:00.0000, 3.383137887561916E+06, -3.284480980010962E+08, -8.349957288893893E+06,
2460630.500000000, A.D. 2024-Nov-16 00:00:00.0000, 1.587179609996654E+07, -3.287816733216587E+08, -4.576976988628969E+06,
2460637.500000000, A.D. 2024-Nov-23 00:00:00.0000, 2.833884846091980E+07, -3.286679747273780E+08, -7.977629942755401E+05,
2460644.500000000, A.D. 2024-Nov-30 00:00:00.0000, 4.076757645974560E+07, -3.281099668751926E+08, 2.982536500666782E+06,
2460651.500000000, A.D. 2024-Dec-07 00:00:00.0000, 5.314155713304096E+07, -3.271114502624835E+08, 6.758838378290445E+06,
2460658.500000000, A.D. 2024-Dec-14 00:00:00.0000, 6.544470996891794E+07, -3.256770284151309E+08, 1.052613946793431E+07,
2460665.500000000, A.D. 2024-Dec-21 00:00:00.0000, 7.766133809533606E+07, -3.238120715982283E+08, 1.427953072786997E+07,
2460672.500000000, A.D. 2024-Dec-28 00:00:00.0000, 8.977616551734175E+07, -3.215226804377183E+08, 1.801421023765242E+07,
2460679.500000000, A.D. 2025-Jan-04 00:00:00.0000, 1.017743728468628E+08, -3.188156475131023E+08, 2.172549489715815E+07,
2460686.500000000, A.D. 2025-Jan-11 00:00:00.0000, 1.136416296010143E+08, -3.156984157032710E+08, 2.540883109141926E+07,
2460693.500000000, A.D. 2025-Jan-18 00:00:00.0000, 1.253641220986659E+08, -3.121790346410505E+08, 2.905980430217925E+07,
2460700.500000000, A.D. 2025-Jan-25 00:00:00.0000, 1.369285771931874E+08, -3.082661161768934E+08, 3.267414759168196E+07,
2460707.500000000, A.D. 2025-Feb-01 00:00:00.0000, 1.483222820693119E+08, -3.039687892918258E+08, 3.624774893933435E+07,
2460714.500000000, A.D. 2025-Feb-08 00:00:00.0000, 1.595331002404658E+08, -2.992966548284853E+08, 3.977665744043583E+07,
$$EOE